1 45392U 20019AJ  23001.54487643  .00044516  00000-0  18948-2 0  9994
2 45392  52.9877 300.6903 0001912  39.8843 320.2293 15.22580405154746
1 45392U 20019AJ  23001.54487643  .00044516  00000-0  18948-2 0  9994
2 45392  52.9877 300.6903 0001912  39.8843 320.2293 15.22580405154746
1 45392U 20019AJ  23001.80743805  .00045404  00000-0  19308-2 0  9996
2 45392  52.9876 299.4802 0001932  39.8558 320.2579 15.22602885154781
1 45392U 20019AJ  23002.52945934  .00039242  00000-0  16689-2 0  9995
2 45392  52.9876 296.1514 0001961  43.2406 316.8743 15.22667218154895
1 45392U 20019AJ  23003.18581735  .00045349  00000-0  19214-2 0  9995
2 45392  52.9873 293.1254 0001985  46.2730 313.8429 15.22727430154991
1 45392U 20019AJ  23003.18581735  .00045349  00000-0  19214-2 0  9995
2 45392  52.9873 293.1254 0001985  46.2730 313.8429 15.22727430154991
1 45392U 20019AJ  23004.49846292  .00050669  00000-0  21363-2 0  9991
2 45392  52.9873 287.0734 0002055  50.6912 309.4265 15.22842922155192
1 45392U 20019AJ  23004.49846292  .00050669  00000-0  21363-2 0  9991
2 45392  52.9873 287.0734 0002055  50.6912 309.4265 15.22842922155192
1 45392U 20019AJ  23005.48286919  .00041276  00000-0  17399-2 0  9993
2 45392  52.9871 282.5337 0002098  54.5340 305.5851 15.22943975155349
1 45392U 20019AJ  23005.74536649  .00043784  00000-0  18426-2 0  9998
2 45392  52.9869 281.3230 0002116  55.2092 304.9102 15.22972606155387
1 45392U 20019AJ  23005.74536649  .00043784  00000-0  18426-2 0  9998
2 45392  52.9869 281.3230 0002116  55.2092 304.9102 15.22972606155387
1 45392U 20019AJ  23006.46720767  .00053385  00000-0  22350-2 0  9993
2 45392  52.9865 277.9933 0002126  58.4326 301.6876 15.23057746155494
1 45392U 20019AJ  23006.72968674  .00042094  00000-0  17668-2 0  9994
2 45392  52.9863 276.7834 0002160  58.2912 301.8293 15.23080230155530
1 45392U 20019AJ  23007.18901447  .00048415  00000-0  20254-2 0  9998
2 45392  52.9856 274.6632 0002094  62.5547 297.5661 15.23128129155601
1 45392U 20019AJ  23007.45148187  .00047942  00000-0  20046-2 0  9995
2 45392  52.9854 273.4529 0002117  62.0469 298.0740 15.23149687155645
1 45392U 20019AJ  23007.45148187  .00047942  00000-0  20046-2 0  9995
2 45392  52.9854 273.4529 0002117  62.0469 298.0740 15.23149687155645
1 45392U 20019AJ  23008.10763279  .00047485  00000-0  19823-2 0  9996
2 45392  52.9849 270.4249 0002095  65.1756 294.9457 15.23207944155745
1 45392U 20019AJ  23009.15742322  .00047736  00000-0  19872-2 0  9991
2 45392  52.9843 265.5808 0002064  66.7839 293.3374 15.23300376155902
1 45392U 20019AJ  23009.41986134  .00041721  00000-0  17391-2 0  9993
2 45392  52.9843 264.3693 0002105  68.7691 291.3530 15.23317836155940
1 45392U 20019AJ  23009.41986134  .00041721  00000-0  17391-2 0  9993
2 45392  52.9843 264.3693 0002105  68.7691 291.3530 15.23317836155940
1 45392U 20019AJ  23010.40397298  .00039607  00000-0  16484-2 0  9993
2 45392  52.9838 259.8272 0002183  71.9644 288.1590 15.23394236156092
1 45392U 20019AJ  23010.99441584  .00045381  00000-0  18824-2 0  9991
2 45392  52.9835 257.1015 0002181  73.7939 286.3296 15.23444356156182
1 45392U 20019AJ  23011.58483950  .00045366  00000-0  18790-2 0  9995
2 45392  52.9824 254.3762 0002252  75.2352 284.8893 15.23494495156278
1 45392U 20019AJ  23011.71604207  .00042447  00000-0  17592-2 0  9996
2 45392  52.9825 253.7706 0002265  75.7555 284.3692 15.23503873156299
1 45392U 20019AJ  23012.04404439  .00042325  00000-0  17528-2 0  9992
2 45392  52.9823 252.2564 0002271  75.8689 284.2558 15.23530698156340
1 45392U 20019AJ  23012.89682221  .00039193  00000-0  16215-2 0  9993
2 45392  52.9819 248.3190 0002238  78.4983 281.6264 15.23599505156476
1 45392U 20019AJ  23013.02801540  .00040106  00000-0  16582-2 0  9999
2 45392  52.9819 247.7133 0002236  78.6266 281.4981 15.23610721156490
1 45392U 20019AJ  23014.01193563  .00041968  00000-0  17300-2 0  9994
2 45392  52.9814 243.1697 0002211  80.8694 279.2552 15.23691194156642
1 45392U 20019AJ  23015.06139413  .00048536  00000-0  19916-2 0  9997
2 45392  52.9808 238.3228 0002170  82.6582 277.4660 15.23779138156804
1 45392U 20019AJ  23015.32374998  .00044666  00000-0  18339-2 0  9993
2 45392  52.9807 237.1109 0002167  83.4458 276.6784 15.23796857156844
1 45392U 20019AJ  23015.78286363  .00038129  00000-0  15674-2 0  9997
2 45392  52.9806 234.9903 0002053  85.1109 275.0121 15.23828776156918
1 45392U 20019AJ  23015.91403694  .00046355  00000-0  18995-2 0  9999
2 45392  52.9813 234.3840 0002105  84.5165 275.6071 15.23845993156935
1 45392U 20019AJ  23015.91403694  .00046355  00000-0  18995-2 0  9999
2 45392  52.9813 234.3840 0002105  84.5165 275.6071 15.23845993156935
1 45392U 20019AJ  23016.76664152  .00035776  00000-0  14686-2 0  9999
2 45392  52.9808 230.4457 0002085  86.4481 273.6753 15.23906633157068
1 45392U 20019AJ  23016.76664152  .00035776  00000-0  14686-2 0  9999
2 45392  52.9808 230.4457 0002085  86.4481 273.6753 15.23906633157068
1 45392U 20019AJ  23017.29130864  .00024899  00000-0  10272-2 0  9997
2 45392  52.9806 228.0222 0002096  86.9736 273.1500 15.23926203157148
1 45392U 20019AJ  23017.29130864  .00024899  00000-0  10272-2 0  9997
2 45392  52.9806 228.0222 0002096  86.9736 273.1500 15.23926203157148
1 45392U 20019AJ  23017.88155077  .00020375  00000-0  84307-3 0  9991
2 45392  52.9803 225.2954 0002104  88.1066 272.0170 15.23946343157234
1 45392U 20019AJ  23018.27504070  .00025805  00000-0  10627-2 0  9992
2 45392  52.9801 223.4770 0002119  87.9991 272.1248 15.23965424157292
1 45392U 20019AJ  23018.27504070  .00025805  00000-0  10627-2 0  9992
2 45392  52.9801 223.4770 0002119  87.9991 272.1248 15.23965424157292
1 45392U 20019AJ  23018.86526861  .00023689  00000-0  97637-3 0  9994
2 45392  52.9792 220.7513 0002085  88.8796 271.2438 15.23985321157380
1 45392U 20019AJ  23018.86526861  .00023689  00000-0  97637-3 0  9994
2 45392  52.9792 220.7513 0002085  88.8796 271.2438 15.23985321157380
1 45392U 20019AJ  23019.58664612  .00019840  00000-0  81977-3 0  9995
2 45392  52.9786 217.4185 0002092  91.3448 268.7787 15.24010313157493
1 45392U 20019AJ  23019.58664612  .00019840  00000-0  81977-3 0  9995
2 45392  52.9786 217.4185 0002092  91.3448 268.7787 15.24010313157493
1 45392U 20019AJ  23020.24243380  .00016552  00000-0  68612-3 0  9993
2 45392  52.9781 214.3881 0002069  92.1730 267.9503 15.24029786157596
1 45392U 20019AJ  23020.89821336  .00016875  00000-0  69877-3 0  9999
2 45392  52.9778 211.3580 0002074  92.7648 267.3585 15.24050775157692
1 45392U 20019AJ  23022.20974415  .00017079  00000-0  70613-3 0  9990
2 45392  52.9775 205.2973 0002080  95.7791 264.3442 15.24094000157896
1 45392U 20019AJ  23023.52123319  .00017390  00000-0  71766-3 0  9991
2 45392  52.9777 199.2362 0002054  97.0890 263.0339 15.24143256158090
1 45392U 20019AJ  23024.50481722  .00021305  00000-0  87442-3 0  9994
2 45392  52.9776 194.6905 0001990  97.8987 262.2235 15.24192325158248
1 45392U 20019AJ  23025.42279952  .00021911  00000-0  89755-3 0  9998
2 45392  52.9774 190.4474 0001947  98.5174 261.6043 15.24239971158383
1 45392U 20019AJ  23025.61950609  .00024388  00000-0  99678-3 0  9990
2 45392  52.9773 189.5386 0001934  97.4596 262.6619 15.24252155158418
1 45392U 20019AJ  23025.75064265  .00026572  00000-0  10842-2 0  9991
2 45392  52.9773 188.9327 0001929  97.1211 263.0004 15.24261557158432
1 45392U 20019AJ  23026.60301342  .00032058  00000-0  13020-2 0  9993
2 45392  52.9770 184.9925 0001899  97.9778 262.1433 15.24320274158563
1 45392U 20019AJ  23026.66857895  .00033634  00000-0  13648-2 0  9995
2 45392  52.9768 184.6893 0001878  97.2813 262.8396 15.24325824158573
1 45392U 20019AJ  23027.58647750  .00031418  00000-0  12738-2 0  9991
2 45392  52.9767 180.4455 0001871  98.6037 261.5171 15.24387562158716
1 45392U 20019AJ  23027.65204025  .00031933  00000-0  12942-2 0  9992
2 45392  52.9766 180.1424 0001867  98.4205 261.7002 15.24392189158725
1 45392U 20019AJ  23028.11097398  .00033542  00000-0  13571-2 0  9994
2 45392  52.9763 178.0207 0001833  98.8912 261.2292 15.24425050158796
1 45392U 20019AJ  23028.56989747  .00030900  00000-0  12506-2 0  9993
2 45392  52.9758 175.8983 0001806  98.7735 261.3465 15.24455878158860
1 45392U 20019AJ  23028.70101686  .00031300  00000-0  12662-2 0  9995
2 45392  52.9757 175.2921 0001791  98.3239 261.7959 15.24464915158889
1 45392U 20019AJ  23029.55327172  .00032391  00000-0  13072-2 0  9996
2 45392  52.9753 171.3512 0001728  98.7356 261.3835 15.24527906159017
1 45392U 20019AJ  23029.68438498  .00033021  00000-0  13319-2 0  9999
2 45392  52.9753 170.7450 0001714  98.0687 262.0503 15.24537309159036
1 45392U 20019AJ  23030.33993907  .00032160  00000-0  12959-2 0  9996
2 45392  52.9751 167.7132 0001667  97.5583 262.5602 15.24582997159132
1 45392U 20019AJ  23031.06102556  .00032464  00000-0  13060-2 0  9990
2 45392  52.9750 164.3783 0001643  96.1616 263.9567 15.24633749159241
1 45392U 20019AJ  23031.51988482  .00040017  00000-0  16031-2 0  9994
2 45392  52.9752 162.2559 0001585  96.1763 263.9413 15.24674815159316
1 45392U 20019AJ  23031.51988482  .00040017  00000-0  16031-2 0  9994
2 45392  52.9752 162.2559 0001585  96.1763 263.9413 15.24674815159316
1 45392U 20019AJ  23032.50311365  .00041800  00000-0  16691-2 0  9997
2 45392  52.9752 157.7077 0001490  94.0569 266.0597 15.24762982159462
1 45392U 20019AJ  23032.50311365  .00041800  00000-0  16691-2 0  9997
2 45392  52.9752 157.7077 0001490  94.0569 266.0597 15.24762982159462
1 45392U 20019AJ  23033.55182597  .00046018  00000-0  18296-2 0  9995
2 45392  52.9753 152.8558 0001451  89.3989 270.7173 15.24864195159622
1 45392U 20019AJ  23033.55182597  .00046018  00000-0  18296-2 0  9995
2 45392  52.9753 152.8558 0001451  89.3989 270.7173 15.24864195159622
1 45392U 20019AJ  23034.53492842  .00048509  00000-0  19215-2 0  9990
2 45392  52.9754 148.3068 0001436  84.0498 276.0662 15.24964204159779
1 45392U 20019AJ  23034.53492842  .00048509  00000-0  19215-2 0  9990
2 45392  52.9754 148.3068 0001436  84.0498 276.0662 15.24964204159779
